[{"OBJECT_NAME":"STARLINK-1283","OBJECT_ID":"2020-019AF","EPOCH":"2026-03-10T00:00:02.999808","MEAN_MOTION":15.56524981,"ECCENTRICITY":0.00033939,"INCLINATION":53.0436,"RA_OF_ASC_NODE":108.487,"ARG_OF_PERICENTER":247.3104,"MEAN_ANOMALY":241.6947,"EPHEMERIS_TYPE":0,"CLASSIFICATION_TYPE":"U","NORAD_CAT_ID":45389,"ELEMENT_SET_NO":999,"REV_AT_EPOCH":592,"BSTAR":0.0022127686,"MEAN_MOTION_DOT":0.00162614,"MEAN_MOTION_DDOT":0},{"OBJECT_NAME":"DUPLEX","OBJECT_ID":"1998-067XS","EPOCH":"2026-03-09T06:21:42.121440","MEAN_MOTION":15.5617383,"ECCENTRICITY":0.00023526,"INCLINATION":51.6292,"RA_OF_ASC_NODE":71.5742,"ARG_OF_PERICENTER":105.0459,"MEAN_ANOMALY":255.0793,"EPHEMERIS_TYPE":0,"CLASSIFICATION_TYPE":"U","NORAD_CAT_ID":66906,"ELEMENT_SET_NO":999,"REV_AT_EPOCH":1506,"BSTAR":0.00046193686,"MEAN_MOTION_DOT":0.00032613,"MEAN_MOTION_DDOT":0}]
